GUOWANG TEST OBJECT B   
1 69321U 26120B   26152.22646240  .00027608  00000+0  70944-3 0  9993
2 69321  54.9976  99.6150 0009146 282.2486  77.7518 15.39106645   235
GUOWANG TEST OBJECT C   
1 69322U 26120C   26152.22618734  .00020492  00000+0  52449-3 0  9995
2 69322  54.9979  99.6107 0009360 290.4255  69.5768 15.39404179   233
GUOWANG TEST OBJECT D   
1 69323U 26120D   26152.22585963  .00034091  00000+0  85462-3 0  9994
2 69323  54.9977  99.6090 0009732 298.7088  61.2962 15.39750006   239
QIANFAN-163             
1 69325U 26121A   26154.98440444  .00000017  00000+0  67682-5 0  9993
2 69325  89.0161 301.8508 0018824 226.7301 133.2285 13.60350498   363
QIANFAN-164             
1 69326U 26121B   26154.98411229  .00000122  00000+0  14664-3 0  9990
2 69326  89.0158 301.8507 0018193 228.0170 131.9437 13.60503556   366
SZ-22 MODULE            
1 69328U 25272C   26155.11552675  .00021512  00000+0  26478-3 0  9997
2 69328  41.4810  41.5442 0008524 344.6497  15.4082 15.59683773  1289
