OBJECT_NAME,OBJECT_ID,EPOCH,MEAN_MOTION,ECCENTRICITY,INCLINATION,RA_OF_ASC_NODE,ARG_OF_PERICENTER,MEAN_ANOMALY,EPHEMERIS_TYPE,CLASSIFICATION_TYPE,NORAD_CAT_ID,ELEMENT_SET_NO,REV_AT_EPOCH,BSTAR,MEAN_MOTION_DOT,MEAN_MOTION_DDOT
GUOWANG TEST OBJECT B,2026-120B,2026-06-01T05:26:06.351360,15.39106645,.00091466,54.9976,99.6150,282.2486,77.7518,0,U,69321,999,23,.70944119E-3,.27608E-3,0
GUOWANG TEST OBJECT C,2026-120C,2026-06-01T05:25:42.586176,15.39404179,.00093607,54.9979,99.6107,290.4255,69.5768,0,U,69322,999,23,.5244937E-3,.20492E-3,0
GUOWANG TEST OBJECT D,2026-120D,2026-06-01T05:25:14.272032,15.39750006,.0009732,54.9977,99.6090,298.7088,61.2962,0,U,69323,999,23,.8546188E-3,.34091E-3,0
QIANFAN-163,2026-121A,2026-06-03T23:37:32.543616,13.60350498,.0018824,89.0161,301.8508,226.7301,133.2285,0,U,69325,999,36,.676822E-5,.17E-6,0
QIANFAN-164,2026-121B,2026-06-03T23:37:07.301856,13.60503556,.00181939,89.0158,301.8507,228.0170,131.9437,0,U,69326,999,36,.14663628E-3,.122E-5,0
SZ-22 MODULE,2025-272C,2026-06-04T02:46:21.511200,15.59683773,.0008524,41.4810,41.5442,344.6497,15.4082,0,U,69328,999,128,.26477988E-3,.21512E-3,0
